[{"OBJECT_NAME":"TYVAK-0130","OBJECT_ID":"2021-041BF","EPOCH":"2026-03-09T11:37:42.710304","MEAN_MOTION":15.26049141,"ECCENTRICITY":0.0008953,"INCLINATION":52.9967,"RA_OF_ASC_NODE":128.603,"ARG_OF_PERICENTER":215.1647,"MEAN_ANOMALY":144.876,"EPHEMERIS_TYPE":0,"CLASSIFICATION_TYPE":"U","NORAD_CAT_ID":48606,"ELEMENT_SET_NO":999,"REV_AT_EPOCH":26515,"BSTAR":0.0003519806,"MEAN_MOTION_DOT":8.857e-5,"MEAN_MOTION_DDOT":0},{"OBJECT_NAME":"STARLINK-31128","OBJECT_ID":"2023-211C","EPOCH":"2026-03-09T02:07:42.880800","MEAN_MOTION":15.27568518,"ECCENTRICITY":6.767e-5,"INCLINATION":43.003,"RA_OF_ASC_NODE":88.5877,"ARG_OF_PERICENTER":265.1154,"MEAN_ANOMALY":94.9621,"EPHEMERIS_TYPE":0,"CLASSIFICATION_TYPE":"U","NORAD_CAT_ID":58669,"ELEMENT_SET_NO":999,"REV_AT_EPOCH":12237,"BSTAR":-5.9898983e-5,"MEAN_MOTION_DOT":-1.909e-5,"MEAN_MOTION_DDOT":0}]
