TYVAK-0130              
1 48606U 21041BF  26068.48452211  .00008857  00000+0  35198-3 0  9997
2 48606  52.9967 128.6030 0008953 215.1647 144.8760 15.26049141265157
STARLINK-31128          
1 58669U 23211C   26068.08869075 -.00001909  00000+0 -59899-4 0  9992
2 58669  43.0030  88.5877 0000676 265.1154  94.9621 15.27568518122376
